{
  "norad_id": 59339,
  "name": "STARLINK-31473",
  "history": [
    {
      "epoch": "2026-04-16T21:28:49.135296Z",
      "apogee_km": 484.01390869294755,
      "perigee_km": 482.0927753971746,
      "latitude_deg": 4.607215017638559e-05,
      "longitude_deg": 163.93735511565876,
      "height_km": 482.8678151267891,
      "semi_major_axis_km": 6861.190342045061,
      "eccentricity": 0.00014,
      "inclination_deg": 43.002,
      "raan_deg": 331.1782,
      "arg_perigee_deg": 267.7591,
      "mean_anomaly_deg": 92.3101,
      "mean_motion_rev_day": 15.27578582
    },
    {
      "epoch": "2026-04-17T21:01:09.706656Z",
      "apogee_km": 483.95011496061124,
      "perigee_km": 482.1076174788959,
      "latitude_deg": 3.815544694790916e-06,
      "longitude_deg": 164.34488293225832,
      "height_km": 482.91751419786027,
      "semi_major_axis_km": 6861.165866219753,
      "eccentricity": 0.00013427,
      "inclination_deg": 43.0033,
      "raan_deg": 325.6382,
      "arg_perigee_deg": 263.0389,
      "mean_anomaly_deg": 97.031,
      "mean_motion_rev_day": 15.27586756
    },
    {
      "epoch": "2026-04-18T20:33:30.204576Z",
      "apogee_km": 483.98276592892034,
      "perigee_km": 482.0753617631717,
      "latitude_deg": -2.8691240009370187e-05,
      "longitude_deg": 164.7545269098126,
      "height_km": 482.82893080483336,
      "semi_major_axis_km": 6861.166063846046,
      "eccentricity": 0.000139,
      "inclination_deg": 43.0033,
      "raan_deg": 320.1,
      "arg_perigee_deg": 268.6297,
      "mean_anomaly_deg": 91.4395,
      "mean_motion_rev_day": 15.2758669
    },
    {
      "epoch": "2026-04-19T20:05:51.506016Z",
      "apogee_km": 484.25266797353834,
      "perigee_km": 481.85948382866445,
      "latitude_deg": -2.0876562048918146e-06,
      "longitude_deg": 165.1591755603636,
      "height_km": 483.01153011478635,
      "semi_major_axis_km": 6861.193075901101,
      "eccentricity": 0.0001744,
      "inclination_deg": 43.001,
      "raan_deg": 314.5601,
      "arg_perigee_deg": 261.4256,
      "mean_anomaly_deg": 98.6398,
      "mean_motion_rev_day": 15.27577669
    },
    {
      "epoch": "2026-04-19T23:14:10.241376Z",
      "apogee_km": 484.12960289617695,
      "perigee_km": 481.97230817919626,
      "latitude_deg": 5.691434886561448e-06,
      "longitude_deg": 117.2147245323533,
      "height_km": 482.9632285752853,
      "semi_major_axis_km": 6861.187955537686,
      "eccentricity": 0.00015721,
      "inclination_deg": 43.0014,
      "raan_deg": 313.8226,
      "arg_perigee_deg": 262.7939,
      "mean_anomaly_deg": 97.2734,
      "mean_motion_rev_day": 15.27579379
    },
    {
      "epoch": "2026-04-20T22:46:31.268064Z",
      "apogee_km": 484.0615968802558,
      "perigee_km": 482.0481115187231,
      "latitude_deg": -5.1148196018563284e-05,
      "longitude_deg": 117.62253105401933,
      "height_km": 482.77571256210035,
      "semi_major_axis_km": 6861.191854199489,
      "eccentricity": 0.00014673,
      "inclination_deg": 43.0025,
      "raan_deg": 308.2848,
      "arg_perigee_deg": 273.1995,
      "mean_anomaly_deg": 86.8688,
      "mean_motion_rev_day": 15.27578077
    },
    {
      "epoch": "2026-04-21T22:18:51.570720Z",
      "apogee_km": 484.1372494049838,
      "perigee_km": 481.91011664727466,
      "latitude_deg": -4.113922594099066e-06,
      "longitude_deg": 118.03197299286812,
      "height_km": 482.8726294760544,
      "semi_major_axis_km": 6861.160683026129,
      "eccentricity": 0.0001623,
      "inclination_deg": 43.0027,
      "raan_deg": 302.7455,
      "arg_perigee_deg": 266.3044,
      "mean_anomaly_deg": 93.7622,
      "mean_motion_rev_day": 15.27588487
    },
    {
      "epoch": "2026-04-22T21:51:12.980160Z",
      "apogee_km": 484.1259649688973,
      "perigee_km": 482.0072252987202,
      "latitude_deg": -4.852475493062812e-05,
      "longitude_deg": 118.43739334367548,
      "height_km": 482.85066473111954,
      "semi_major_axis_km": 6861.203595133808,
      "eccentricity": 0.0001544,
      "inclination_deg": 43.0024,
      "raan_deg": 297.2069,
      "arg_perigee_deg": 269.6226,
      "mean_anomaly_deg": 90.4448,
      "mean_motion_rev_day": 15.27574156
    },
    {
      "epoch": "2026-04-24T13:05:07.276704Z",
      "apogee_km": 484.1715270822897,
      "perigee_km": 481.92243097396386,
      "latitude_deg": 1.1826633663340264e-05,
      "longitude_deg": -120.88157106793501,
      "height_km": 482.81257012333384,
      "semi_major_axis_km": 6861.1839790281265,
      "eccentricity": 0.0001639,
      "inclination_deg": 43.0025,
      "raan_deg": 287.9753,
      "arg_perigee_deg": 270.5902,
      "mean_anomaly_deg": 89.4762,
      "mean_motion_rev_day": 15.27580707
    },
    {
      "epoch": "2026-04-25T20:28:14.267424Z",
      "apogee_km": 483.9923447851461,
      "perigee_km": 482.0520089699248,
      "latitude_deg": 3.2457871279784775e-06,
      "longitude_deg": 119.66314387084607,
      "height_km": 483.10538543269416,
      "semi_major_axis_km": 6861.159176877535,
      "eccentricity": 0.0001414,
      "inclination_deg": 43.0023,
      "raan_deg": 280.5881,
      "arg_perigee_deg": 251.5931,
      "mean_anomaly_deg": 108.4767,
      "mean_motion_rev_day": 15.2758899
    },
    {
      "epoch": "2026-04-26T20:00:35.893728Z",
      "apogee_km": 483.9360101153934,
      "perigee_km": 482.20437864367614,
      "latitude_deg": -1.911673555454357e-05,
      "longitude_deg": 120.06708450972829,
      "height_km": 483.19478345415655,
      "semi_major_axis_km": 6861.2071943795345,
      "eccentricity": 0.00012619,
      "inclination_deg": 43.002,
      "raan_deg": 275.0489,
      "arg_perigee_deg": 246.3069,
      "mean_anomaly_deg": 113.765,
      "mean_motion_rev_day": 15.27572954
    },
    {
      "epoch": "2026-04-27T19:32:56.448672Z",
      "apogee_km": 483.6976816488659,
      "perigee_km": 482.3775916487757,
      "latitude_deg": 2.833129543757224e-05,
      "longitude_deg": 120.47547612141959,
      "height_km": 483.0772394626681,
      "semi_major_axis_km": 6861.1746366488205,
      "eccentricity": 9.62e-05,
      "inclination_deg": 43.0022,
      "raan_deg": 269.5096,
      "arg_perigee_deg": 246.5046,
      "mean_anomaly_deg": 113.5705,
      "mean_motion_rev_day": 15.27583827
    },
    {
      "epoch": "2026-04-28T19:05:18.149280Z",
      "apogee_km": 483.83017424248555,
      "perigee_km": 482.31933541407307,
      "latitude_deg": 1.1008643540112242e-06,
      "longitude_deg": 120.87980138337589,
      "height_km": 482.9188216889223,
      "semi_major_axis_km": 6861.2117548282795,
      "eccentricity": 0.0001101,
      "inclination_deg": 43.0026,
      "raan_deg": 263.9711,
      "arg_perigee_deg": 264.8856,
      "mean_anomaly_deg": 95.187,
      "mean_motion_rev_day": 15.27571431
    },
    {
      "epoch": "2026-04-29T09:12:42.333120Z",
      "apogee_km": 483.89448860467655,
      "perigee_km": 482.2047155683158,
      "latitude_deg": 1.7117372633292233e-05,
      "longitude_deg": -94.87287408170475,
      "height_km": 482.67625687008746,
      "semi_major_axis_km": 6861.186602086496,
      "eccentricity": 0.00012314,
      "inclination_deg": 43.0028,
      "raan_deg": 260.6492,
      "arg_perigee_deg": 280.2416,
      "mean_anomaly_deg": 79.8297,
      "mean_motion_rev_day": 15.27579831
    },
    {
      "epoch": "2026-04-30T10:19:12.068256Z",
      "apogee_km": 483.8265753010919,
      "perigee_km": 482.26208873376527,
      "latitude_deg": 7.120358500691223e-05,
      "longitude_deg": -118.4407724298822,
      "height_km": 483.2961079885474,
      "semi_major_axis_km": 6861.181332017428,
      "eccentricity": 0.00011401,
      "inclination_deg": 42.9992,
      "raan_deg": 254.7363,
      "arg_perigee_deg": 232.5493,
      "mean_anomaly_deg": 127.5256,
      "mean_motion_rev_day": 15.27581591
    },
    {
      "epoch": "2026-05-02T09:23:54.124224Z",
      "apogee_km": 483.89880181978697,
      "perigee_km": 482.2740641108603,
      "latitude_deg": 1.3087672513410493e-05,
      "longitude_deg": -117.62300918177844,
      "height_km": 483.02785286765834,
      "semi_major_axis_km": 6861.223432965323,
      "eccentricity": 0.0001184,
      "inclination_deg": 43.003,
      "raan_deg": 243.6628,
      "arg_perigee_deg": 258.3092,
      "mean_anomaly_deg": 101.7627,
      "mean_motion_rev_day": 15.27567531
    },
    {
      "epoch": "2026-05-03T07:22:05.488608Z",
      "apogee_km": 484.10074810352944,
      "perigee_km": 482.0108287801695,
      "latitude_deg": -2.296097403148219e-05,
      "longitude_deg": -93.24247008997779,
      "height_km": 482.8823422942873,
      "semi_major_axis_km": 6861.192788441849,
      "eccentricity": 0.0001523,
      "inclination_deg": 43.0037,
      "raan_deg": 238.493,
      "arg_perigee_deg": 267.2934,
      "mean_anomaly_deg": 92.7743,
      "mean_motion_rev_day": 15.27577765
    },
    {
      "epoch": "2026-05-04T08:28:36.081696Z",
      "apogee_km": 483.8456706147281,
      "perigee_km": 482.28172852726766,
      "latitude_deg": -6.2059182726988305e-06,
      "longitude_deg": -116.80909614370968,
      "height_km": 482.8585347095407,
      "semi_major_axis_km": 6861.200699570998,
      "eccentricity": 0.00011397,
      "inclination_deg": 43.0037,
      "raan_deg": 232.585,
      "arg_perigee_deg": 268.6852,
      "mean_anomaly_deg": 91.3869,
      "mean_motion_rev_day": 15.27575123
    },
    {
      "epoch": "2026-05-05T08:00:56.659104Z",
      "apogee_km": 483.6897774020754,
      "perigee_km": 482.4108520866075,
      "latitude_deg": -3.040140220395744e-05,
      "longitude_deg": -116.4011791484867,
      "height_km": 482.8946248973251,
      "semi_major_axis_km": 6861.187314744341,
      "eccentricity": 9.32e-05,
      "inclination_deg": 43.002,
      "raan_deg": 227.0454,
      "arg_perigee_deg": 263.9138,
      "mean_anomaly_deg": 96.1607,
      "mean_motion_rev_day": 15.27579593
    }
  ]
}